[{"OBJECT_NAME":"STARLINK-33925","OBJECT_ID":"2025-091U","EPOCH":"2025-09-22T02:49:14.884896","MEAN_MOTION":15.27610351,"ECCENTRICITY":0.00010387,"INCLINATION":43.0026,"RA_OF_ASC_NODE":284.325,"ARG_OF_PERICENTER":223.4111,"MEAN_ANOMALY":136.6659,"EPHEMERIS_TYPE":0,"CLASSIFICATION_TYPE":"U","NORAD_CAT_ID":63793,"ELEMENT_SET_NO":999,"REV_AT_EPOCH":2323,"BSTAR":0.0014535054,"MEAN_MOTION_DOT":0.00039989,"MEAN_MOTION_DDOT":0},{"OBJECT_NAME":"STARLINK-33870","OBJECT_ID":"2025-091V","EPOCH":"2025-09-22T01:05:50.324640","MEAN_MOTION":15.27605532,"ECCENTRICITY":4.622e-5,"INCLINATION":43.0002,"RA_OF_ASC_NODE":284.6475,"ARG_OF_PERICENTER":283.5635,"MEAN_ANOMALY":76.5165,"EPHEMERIS_TYPE":0,"CLASSIFICATION_TYPE":"U","NORAD_CAT_ID":63794,"ELEMENT_SET_NO":999,"REV_AT_EPOCH":2311,"BSTAR":0.0012865546,"MEAN_MOTION_DOT":0.00035338,"MEAN_MOTION_DDOT":0},{"OBJECT_NAME":"STARLINK-33867","OBJECT_ID":"2025-091W","EPOCH":"2025-09-21T18:05:00.890592","MEAN_MOTION":15.27597812,"ECCENTRICITY":8.863e-5,"INCLINATION":42.9931,"RA_OF_ASC_NODE":286.7575,"ARG_OF_PERICENTER":273.8459,"MEAN_ANOMALY":86.2291,"EPHEMERIS_TYPE":0,"CLASSIFICATION_TYPE":"U","NORAD_CAT_ID":63795,"ELEMENT_SET_NO":999,"REV_AT_EPOCH":2306,"BSTAR":0.00074494891,"MEAN_MOTION_DOT":0.00020305,"MEAN_MOTION_DDOT":0},{"OBJECT_NAME":"STARLINK-33918","OBJECT_ID":"2025-091X","EPOCH":"2025-09-21T18:06:51.917184","MEAN_MOTION":15.27598732,"ECCENTRICITY":0.0001023,"INCLINATION":42.9951,"RA_OF_ASC_NODE":286.7654,"ARG_OF_PERICENTER":280.8479,"MEAN_ANOMALY":79.2258,"EPHEMERIS_TYPE":0,"CLASSIFICATION_TYPE":"U","NORAD_CAT_ID":63796,"ELEMENT_SET_NO":999,"REV_AT_EPOCH":2311,"BSTAR":0.00094363768,"MEAN_MOTION_DOT":0.00025811,"MEAN_MOTION_DDOT":0},{"OBJECT_NAME":"STARLINK-33712","OBJECT_ID":"2025-091Y","EPOCH":"2025-09-21T11:42:09.410688","MEAN_MOTION":15.27602953,"ECCENTRICITY":0.00015279,"INCLINATION":43.0021,"RA_OF_ASC_NODE":291.7255,"ARG_OF_PERICENTER":276.9731,"MEAN_ANOMALY":83.0947,"EPHEMERIS_TYPE":0,"CLASSIFICATION_TYPE":"U","NORAD_CAT_ID":63797,"ELEMENT_SET_NO":999,"REV_AT_EPOCH":2298,"BSTAR":0.0015309093,"MEAN_MOTION_DOT":0.00042136,"MEAN_MOTION_DDOT":0},{"OBJECT_NAME":"STARLINK-33827","OBJECT_ID":"2025-091Z","EPOCH":"2025-09-22T01:40:59.774592","MEAN_MOTION":15.27614207,"ECCENTRICITY":5.909e-5,"INCLINATION":42.9986,"RA_OF_ASC_NODE":284.8336,"ARG_OF_PERICENTER":264.4105,"MEAN_ANOMALY":95.6679,"EPHEMERIS_TYPE":0,"CLASSIFICATION_TYPE":"U","NORAD_CAT_ID":63798,"ELEMENT_SET_NO":999,"REV_AT_EPOCH":2311,"BSTAR":0.0019904769,"MEAN_MOTION_DOT":0.00054978,"MEAN_MOTION_DDOT":0},{"OBJECT_NAME":"STARLINK-33899","OBJECT_ID":"2025-091AA","EPOCH":"2025-09-22T01:29:53.539008","MEAN_MOTION":15.27609669,"ECCENTRICITY":5.954e-5,"INCLINATION":43.0001,"RA_OF_ASC_NODE":284.7706,"ARG_OF_PERICENTER":274.4817,"MEAN_ANOMALY":85.5966,"EPHEMERIS_TYPE":0,"CLASSIFICATION_TYPE":"U","NORAD_CAT_ID":63799,"ELEMENT_SET_NO":999,"REV_AT_EPOCH":2322,"BSTAR":0.0017348449,"MEAN_MOTION_DOT":0.0004783,"MEAN_MOTION_DDOT":0},{"OBJECT_NAME":"STARLINK-33900","OBJECT_ID":"2025-091AB","EPOCH":"2025-09-21T08:08:36.891168","MEAN_MOTION":15.27594483,"ECCENTRICITY":0.00019668,"INCLINATION":43.0051,"RA_OF_ASC_NODE":288.8027,"ARG_OF_PERICENTER":268.9264,"MEAN_ANOMALY":91.1363,"EPHEMERIS_TYPE":0,"CLASSIFICATION_TYPE":"U","NORAD_CAT_ID":63800,"ELEMENT_SET_NO":999,"REV_AT_EPOCH":2311,"BSTAR":0.0011368168,"MEAN_MOTION_DOT":0.00031167,"MEAN_MOTION_DDOT":0},{"OBJECT_NAME":"STARLINK-33975","OBJECT_ID":"2025-091AC","EPOCH":"2025-09-22T01:03:59.125248","MEAN_MOTION":15.27609107,"ECCENTRICITY":2.348e-5,"INCLINATION":42.9991,"RA_OF_ASC_NODE":284.6362,"ARG_OF_PERICENTER":208.817,"MEAN_ANOMALY":151.2669,"EPHEMERIS_TYPE":0,"CLASSIFICATION_TYPE":"U","NORAD_CAT_ID":63802,"ELEMENT_SET_NO":999,"REV_AT_EPOCH":2322,"BSTAR":0.0015278428,"MEAN_MOTION_DOT":0.00042058,"MEAN_MOTION_DDOT":0},{"OBJECT_NAME":"STARLINK-33951","OBJECT_ID":"2025-091AD","EPOCH":"2025-09-22T02:45:32.542272","MEAN_MOTION":15.2759821,"ECCENTRICITY":7.841e-5,"INCLINATION":43.0021,"RA_OF_ASC_NODE":284.304,"ARG_OF_PERICENTER":223.9324,"MEAN_ANOMALY":136.1465,"EPHEMERIS_TYPE":0,"CLASSIFICATION_TYPE":"U","NORAD_CAT_ID":63803,"ELEMENT_SET_NO":999,"REV_AT_EPOCH":2317,"BSTAR":0.0012762697,"MEAN_MOTION_DOT":0.00035044,"MEAN_MOTION_DDOT":0},{"OBJECT_NAME":"STARLINK-33909","OBJECT_ID":"2025-092A","EPOCH":"2025-09-22T02:00:11.492640","MEAN_MOTION":15.27616138,"ECCENTRICITY":0.00023941,"INCLINATION":43.0006,"RA_OF_ASC_NODE":45.1645,"ARG_OF_PERICENTER":271.4155,"MEAN_ANOMALY":88.6422,"EPHEMERIS_TYPE":0,"CLASSIFICATION_TYPE":"U","NORAD_CAT_ID":63804,"ELEMENT_SET_NO":999,"REV_AT_EPOCH":2282,"BSTAR":0.0014791525,"MEAN_MOTION_DOT":0.00040712,"MEAN_MOTION_DDOT":0},{"OBJECT_NAME":"STARLINK-34029","OBJECT_ID":"2025-092B","EPOCH":"2025-09-22T01:52:44.661216","MEAN_MOTION":15.27572574,"ECCENTRICITY":0.00025099,"INCLINATION":43.0003,"RA_OF_ASC_NODE":45.1228,"ARG_OF_PERICENTER":283.1431,"MEAN_ANOMALY":76.9141,"EPHEMERIS_TYPE":0,"CLASSIFICATION_TYPE":"U","NORAD_CAT_ID":63805,"ELEMENT_SET_NO":999,"REV_AT_EPOCH":2282,"BSTAR":0.0011960559,"MEAN_MOTION_DOT":0.00032791,"MEAN_MOTION_DDOT":0},{"OBJECT_NAME":"STARLINK-34102","OBJECT_ID":"2025-092C","EPOCH":"2025-09-22T01:50:54.655008","MEAN_MOTION":15.27618826,"ECCENTRICITY":0.00027299,"INCLINATION":43.0045,"RA_OF_ASC_NODE":45.1183,"ARG_OF_PERICENTER":283.3666,"MEAN_ANOMALY":76.6882,"EPHEMERIS_TYPE":0,"CLASSIFICATION_TYPE":"U","NORAD_CAT_ID":63806,"ELEMENT_SET_NO":999,"REV_AT_EPOCH":2287,"BSTAR":0.001538679,"MEAN_MOTION_DOT":0.00042375,"MEAN_MOTION_DDOT":0},{"OBJECT_NAME":"STARLINK-34109","OBJECT_ID":"2025-092D","EPOCH":"2025-09-22T02:24:00.295488","MEAN_MOTION":15.27600273,"ECCENTRICITY":1.955e-5,"INCLINATION":43.0076,"RA_OF_ASC_NODE":44.4244,"ARG_OF_PERICENTER":326.5975,"MEAN_ANOMALY":33.4865,"EPHEMERIS_TYPE":0,"CLASSIFICATION_TYPE":"U","NORAD_CAT_ID":63807,"ELEMENT_SET_NO":999,"REV_AT_EPOCH":2283,"BSTAR":0.0010152738,"MEAN_MOTION_DOT":0.00027798,"MEAN_MOTION_DDOT":0},{"OBJECT_NAME":"STARLINK-34091","OBJECT_ID":"2025-092E","EPOCH":"2025-09-21T16:01:55.487712","MEAN_MOTION":15.27604951,"ECCENTRICITY":1.241e-5,"INCLINATION":43.0023,"RA_OF_ASC_NODE":47.2033,"ARG_OF_PERICENTER":183.6248,"MEAN_ANOMALY":176.4603,"EPHEMERIS_TYPE":0,"CLASSIFICATION_TYPE":"U","NORAD_CAT_ID":63808,"ELEMENT_SET_NO":999,"REV_AT_EPOCH":2281,"BSTAR":0.0011278583,"MEAN_MOTION_DOT":0.00030928,"MEAN_MOTION_DDOT":0},{"OBJECT_NAME":"STARLINK-34095","OBJECT_ID":"2025-092F","EPOCH":"2025-09-22T01:58:18.681024","MEAN_MOTION":15.27609667,"ECCENTRICITY":0.00010828,"INCLINATION":42.9955,"RA_OF_ASC_NODE":45.152,"ARG_OF_PERICENTER":282.9988,"MEAN_ANOMALY":77.0743,"EPHEMERIS_TYPE":0,"CLASSIFICATION_TYPE":"U","NORAD_CAT_ID":63809,"ELEMENT_SET_NO":999,"REV_AT_EPOCH":2282,"BSTAR":0.00085330651,"MEAN_MOTION_DOT":0.00023315,"MEAN_MOTION_DDOT":0}]
