STARLINK-33925          
1 63793U 25091U   25265.11753339  .00039989  00000+0  14535-2 0  9994
2 63793  43.0026 284.3250 0001038 223.4111 136.6659 15.27610351 23232
STARLINK-33870          
1 63794U 25091V   25265.04572135  .00035338  00000+0  12866-2 0  9999
2 63794  43.0002 284.6475 0000462 283.5635  76.5165 15.27605532 23113
STARLINK-33867          
1 63795U 25091W   25264.75348253  .00020305  00000+0  74495-3 0  9994
2 63795  42.9931 286.7575 0000886 273.8459  86.2291 15.27597812 23066
STARLINK-33918          
1 63796U 25091X   25264.75476756  .00025811  00000+0  94364-3 0  9999
2 63796  42.9951 286.7654 0001023 280.8479  79.2258 15.27598732 23114
STARLINK-33712          
1 63797U 25091Y   25264.48760892  .00042136  00000+0  15309-2 0  9997
2 63797  43.0021 291.7255 0001527 276.9731  83.0947 15.27602953 22987
STARLINK-33827          
1 63798U 25091Z   25265.07013628  .00054978  00000+0  19905-2 0  9995
2 63798  42.9986 284.8336 0000590 264.4105  95.6679 15.27614207 23117
STARLINK-33899          
1 63799U 25091AA  25265.06242522  .00047830  00000+0  17348-2 0  9990
2 63799  43.0001 284.7706 0000595 274.4817  85.5966 15.27609669 23229
STARLINK-33900          
1 63800U 25091AB  25264.33931587  .00031167  00000+0  11368-2 0  9990
2 63800  43.0051 288.8027 0001966 268.9264  91.1363 15.27594483 23114
STARLINK-33975          
1 63802U 25091AC  25265.04443432  .00042058  00000+0  15278-2 0  9993
2 63802  42.9991 284.6362 0000234 208.8170 151.2669 15.27609107 23228
STARLINK-33951          
1 63803U 25091AD  25265.11495998  .00035044  00000+0  12763-2 0  9999
2 63803  43.0021 284.3040 0000784 223.9324 136.1465 15.27598210 23176
STARLINK-33909          
1 63804U 25092A   25265.08346635  .00040712  00000+0  14792-2 0  9992
2 63804  43.0006  45.1645 0002394 271.4155  88.6422 15.27616138 22828
STARLINK-34029          
1 63805U 25092B   25265.07829469  .00032791  00000+0  11961-2 0  9996
2 63805  43.0003  45.1228 0002509 283.1431  76.9141 15.27572574 22821
STARLINK-34102          
1 63806U 25092C   25265.07702147  .00042375  00000+0  15387-2 0  9995
2 63806  43.0045  45.1183 0002729 283.3666  76.6882 15.27618826 22879
STARLINK-34109          
1 63807U 25092D   25265.10000342  .00027798  00000+0  10153-2 0  9996
2 63807  43.0076  44.4244 0000195 326.5975  33.4865 15.27600273 22837
STARLINK-34091          
1 63808U 25092E   25264.66800333  .00030928  00000+0  11279-2 0  9994
2 63808  43.0023  47.2033 0000124 183.6248 176.4603 15.27604951 22817
STARLINK-34095          
1 63809U 25092F   25265.08216066  .00023315  00000+0  85331-3 0  9999
2 63809  42.9955  45.1520 0001082 282.9988  77.0743 15.27609667 22827
